NORAD_CAT_ID,OBJECT_NAME,OBJECT_TYPE,EPOCH,MEAN_MOTION,ECCENTRICITY,INCLINATION,RA_OF_ASC_NODE,ARG_OF_PERICENTER,MEAN_ANOMALY,BSTAR,MEAN_MOTION_DOT,MEAN_MOTION_DDOT,TLE_LINE0,TLE_LINE1,TLE_LINE2,SEMIMAJOR_AXIS,PERIOD,APOGEE,PERIGEE,DECAYED
55635.0,STARLINK-5495,PAYLOAD,2024-03-24 16:58:17,14.98323995,0.0002769,70.0014,187.1969,270.6988,89.3854,-0.00011425,-1.456e-05,0.0,0 STARLINK-5495,1 55635U 23021H   24084.70715166 -.00001456  00000-0 -11425-3 0  9997,2 55635  70.0014 187.1969 0002769 270.6988  89.3854 14.98323995 61392,6950.211,96.107,574.001,570.152,0.0
55635.0,STARLINK-5495,PAYLOAD,2024-03-25 17:00:18,14.98316067,0.0002308,70.0033,184.677,222.9076,137.1903,0.0005948,7.008e-05,0.0,0 STARLINK-5495,1 55635U 23021H   24085.70854740  .00007008  00000-0  59480-3 0  9990,2 55635  70.0033 184.6770 0002308 222.9076 137.1903 14.98316067 61548,6950.236,96.108,573.705,570.497,0.0
55635.0,STARLINK-5495,PAYLOAD,2024-03-26 05:49:22,14.98346397,0.0003247,70.0008,183.325,267.3539,92.7248,-1.6753e-05,-2.93e-06,0.0,0 STARLINK-5495,1 55635U 23021H   24086.24261623 -.00000293  00000-0 -16753-4 0  9990,2 55635  70.0008 183.3250 0003247 267.3539  92.7248 14.98346397 61625,6950.142,96.106,574.264,569.75,0.0
55635.0,STARLINK-5495,PAYLOAD,2024-03-26 13:50:02,14.98347274,0.0002702,70.0007,182.4835,262.7515,97.3337,-4.2343e-06,-1.44e-06,0.0,0 STARLINK-5495,1 55635U 23021H   24086.57641234 -.00000144  00000-0 -42343-5 0  9996,2 55635  70.0007 182.4835 0002702 262.7515  97.3337 14.98347274 61974,6950.139,96.106,573.882,570.127,0.0
55635.0,STARLINK-5495,PAYLOAD,2024-03-26 15:26:09,14.98348573,0.0002748,70.0006,182.3152,264.7392,95.3454,1.3522e-05,6.8e-07,0.0,0 STARLINK-5495,1 55635U 23021H   24086.64317046  .00000068  00000-0  13522-4 0  9994,2 55635  70.0006 182.3152 0002748 264.7392  95.3454 14.98348573 61981,6950.135,96.106,573.91,570.091,0.0
55635.0,STARLINK-5495,PAYLOAD,2024-03-26 23:26:50,14.98330787,0.0002994,70.0017,181.4712,272.7625,87.3192,0.00012057,1.346e-05,0.0,0 STARLINK-5495,1 55635U 23021H   24086.97697568  .00001346  00000-0  12057-3 0  9991,2 55635  70.0017 181.4712 0002994 272.7625  87.3192 14.98330787 61737,6950.19,96.107,574.136,569.975,0.0
55635.0,STARLINK-5495,PAYLOAD,2024-03-27 13:52:04,14.98323614,0.0002469,70.0017,179.9605,265.4553,94.6324,-0.0001303,-1.647e-05,0.0,0 STARLINK-5495,1 55635U 23021H   24087.57783066 -.00001647  00000-0 -13030-3 0  9995,2 55635  70.0017 179.9605 0002469 265.4553  94.6324 14.98323614 61825,6950.213,96.107,573.794,570.362,0.0
55635.0,STARLINK-5495,PAYLOAD,2024-03-27 15:28:12,14.98323481,0.0002375,70.0019,179.7924,262.4265,97.6625,-0.00013119,-1.658e-05,0.0,0 STARLINK-5495,1 55635U 23021H   24087.64459104 -.00001658  00000-0 -13119-3 0  9996,2 55635  70.0019 179.7924 0002375 262.4265  97.6625 14.98323481 62136,6950.213,96.107,573.729,570.427,0.0
55635.0,STARLINK-5495,PAYLOAD,2024-03-28 05:53:24,14.98327933,0.0002689,70.0009,178.2761,270.3176,89.7675,-0.00010186,-1.308e-05,0.0,0 STARLINK-5495,1 55635U 23021H   24088.24542657 -.00001308  00000-0 -10186-3 0  9992,2 55635  70.0009 178.2761 0002689 270.3176  89.7675 14.98327933 61924,6950.199,96.107,573.933,570.195,0.0
55635.0,STARLINK-5495,PAYLOAD,2024-03-28 12:17:56,14.98331292,0.0002687,70.0008,177.6026,268.8664,91.2187,-4.5474e-05,-6.35e-06,0.0,0 STARLINK-5495,1 55635U 23021H   24088.51246308 -.00000635  00000-0 -45474-4 0  9997,2 55635  70.0008 177.6026 0002687 268.8664  91.2187 14.98331292 62269,6950.189,96.107,573.921,570.186,0.0
55635.0,STARLINK-5495,PAYLOAD,2024-03-29 12:19:57,14.98332884,0.0002768,70.0008,175.0774,271.4115,88.6727,0.000187,2.139e-05,0.0,0 STARLINK-5495,1 55635U 23021H   24089.51385679  .00002139  00000-0  18700-3 0  9993,2 55635  70.0008 175.0774 0002768 271.4115  88.6727 14.98332884 62114,6950.184,96.107,573.973,570.125,0.0
55635.0,STARLINK-5495,PAYLOAD,2024-03-30 12:21:58,14.98329514,0.0003053,70.0001,172.5519,272.8353,87.2457,3.846e-05,3.66e-06,0.0,0 STARLINK-5495,1 55635U 23021H   24090.51526375  .00000366  00000-0  38460-4 0  9991,2 55635  70.0001 172.5519 0003053 272.8353  87.2457 14.98329514 62260,6950.194,96.107,574.181,569.937,0.0
55635.0,STARLINK-5495,PAYLOAD,2024-03-30 13:58:06,14.98329115,0.0003028,69.9999,172.3836,272.2011,87.8801,4.6616e-05,4.63e-06,0.0,0 STARLINK-5495,1 55635U 23021H   24090.58202441  .00000463  00000-0  46616-4 0  9993,2 55635  69.9999 172.3836 0003028 272.2011  87.8801 14.98329115 62570,6950.196,96.107,574.165,569.956,0.0
55635.0,STARLINK-5495,PAYLOAD,2024-03-30 15:34:14,14.98329742,0.0002954,70.0003,172.2156,271.1965,88.8855,5.7194e-05,5.89e-06,0.0,0 STARLINK-5495,1 55635U 23021H   24090.64878352  .00000589  00000-0  57194-4 0  9992,2 55635  70.0003 172.2156 0002954 271.1965  88.8855 14.98329742 62583,6950.194,96.107,574.112,570.006,0.0
55635.0,STARLINK-5495,PAYLOAD,2024-03-31 12:23:59,14.98336108,0.0002851,70.0009,170.0296,268.1209,91.9623,7.5364e-06,-3e-08,0.0,0 STARLINK-5495,1 55635U 23021H   24091.51665850 -.00000003  00000-0  75364-5 0  9998,2 55635  70.0009 170.0296 0002851 268.1209  91.9623 14.98336108 62417,6950.174,96.107,574.02,570.058,0.0
55635.0,STARLINK-5495,PAYLOAD,2024-03-31 14:00:06,14.98372918,0.0002492,70.0009,169.8603,265.4919,94.5956,-0.00060405,-7.301e-05,0.0,0 STARLINK-5495,1 55635U 23021H   24091.58340970 -.00007301  00000-0 -60405-3 0  9995,2 55635  70.0009 169.8603 0002492 265.4919  94.5956 14.98372918 62725,6950.06,96.104,573.657,570.193,0.0
55635.0,STARLINK-5495,PAYLOAD,2024-03-31 22:00:47,14.9835246,0.0002728,70.0014,169.0187,272.9243,87.1604,-0.00043218,-5.249e-05,0.0,0 STARLINK-5495,1 55635U 23021H   24091.91721603 -.00005249  00000-0 -43218-3 0  9990,2 55635  70.0014 169.0187 0002728 272.9243  87.1604 14.98352460 62778,6950.123,96.106,573.884,570.092,0.0
55635.0,STARLINK-5495,PAYLOAD,2024-04-01 04:25:20,14.98311044,0.000226,70.003,168.3458,264.1983,95.8918,0.00021487,2.47e-05,0.0,0 STARLINK-5495,1 55635U 23021H   24092.18426740  .00002470  00000-0  21487-3 0  9999,2 55635  70.0030 168.3458 0002260 264.1983  95.8918 14.98311044 62513,6950.252,96.108,573.687,570.546,0.0
55635.0,STARLINK-5495,PAYLOAD,2024-04-01 14:02:09,14.98315269,0.0002478,70.0015,167.3366,261.9508,98.137,-5.0397e-05,-6.94e-06,0.0,0 STARLINK-5495,1 55635U 23021H   24092.58483557 -.00000694  00000-0 -50397-4 0  9993,2 55635  70.0015 167.3366 0002478 261.9508  98.1370 14.98315269 62872,6950.238,96.108,573.826,570.381,0.0
55635.0,STARLINK-5495,PAYLOAD,2024-04-02 04:27:21,14.98329807,0.0003036,69.9997,165.82,265.9046,94.1766,-7.8572e-06,-1.87e-06,0.0,0 STARLINK-5495,1 55635U 23021H   24093.18566585 -.00000187  00000-0 -78572-5 0  9996,2 55635  69.9997 165.8200 0003036 265.9046  94.1766 14.98329807 62665,6950.193,96.107,574.169,569.948,0.0
55635.0,STARLINK-5495,PAYLOAD,2024-04-02 10:51:53,14.98337088,0.0002908,70.0003,165.1475,268.033,92.0496,5.5797e-05,5.73e-06,0.0,0 STARLINK-5495,1 55635U 23021H   24093.45269941  .00000573  00000-0  55797-4 0  9992,2 55635  70.0003 165.1475 0002908 268.0330  92.0496 14.98337088 62702,6950.171,96.107,574.057,570.015,0.0
55635.0,STARLINK-5495,PAYLOAD,2024-04-02 12:28:01,14.983492,0.0002652,70.0003,164.9788,258.504,101.5822,-0.00014933,-1.875e-05,0.0,0 STARLINK-5495,1 55635U 23021H   24093.51945603 -.00001875  00000-0 -14933-3 0  9999,2 55635  70.0003 164.9788 0002652 258.5040 101.5822 14.98349200 63017,6950.134,96.106,573.842,570.155,0.0
55635.0,STARLINK-5495,PAYLOAD,2024-04-02 22:04:49,14.98333947,0.0002843,70.0004,163.9695,272.7893,87.2941,-3.1182e-05,-4.65e-06,0.0,0 STARLINK-5495,1 55635U 23021H   24093.92002263 -.00000465  00000-0 -31182-4 0  9990,2 55635  70.0004 163.9695 0002843 272.7893  87.2941 14.98333947 63079,6950.181,96.107,574.022,570.07,0.0
55635.0,STARLINK-5495,PAYLOAD,2024-04-03 04:29:22,14.98322601,0.0002837,70.0002,163.296,267.7798,92.3036,0.00012861,1.442e-05,0.0,0 STARLINK-5495,1 55635U 23021H   24094.18706572  .00001442  00000-0  12861-3 0  9999,2 55635  70.0002 163.2960 0002837 267.7798  92.3036 14.98322601 62814,6950.216,96.107,574.053,570.109,0.0
55635.0,STARLINK-5495,PAYLOAD,2024-04-03 14:06:10,14.98324707,0.0002949,69.9998,162.2856,266.9437,93.1384,9.2855e-05,1.015e-05,0.0,0 STARLINK-5495,1 55635U 23021H   24094.58762628  .00001015  00000-0  92855-4 0  9995,2 55635  69.9998 162.2856 0002949 266.9437  93.1384 14.98324707 63177,6950.209,96.107,574.124,570.025,0.0
55635.0,STARLINK-5495,PAYLOAD,2024-04-03 22:06:51,14.98327779,0.0002944,69.9998,161.4435,266.5363,93.5459,8.9952e-05,9.8e-06,0.0,0 STARLINK-5495,1 55635U 23021H   24094.92142450  .00000980  00000-0  89952-4 0  9992,2 55635  69.9998 161.4435 0002944 266.5363  93.5459 14.98327779 63225,6950.2,96.107,574.111,570.019,0.0
55635.0,STARLINK-5495,PAYLOAD,2024-04-04 12:32:03,14.98335943,0.0002932,69.9998,159.9289,267.2837,92.7986,-2.5917e-05,-4.02e-06,0.0,0 STARLINK-5495,1 55635U 23021H   24095.52226101 -.00000402  00000-0 -25917-4 0  9997,2 55635  69.9998 159.9289 0002932 267.2837  92.7986 14.98335943 63010,6950.175,96.107,574.077,570.002,0.0
55635.0,STARLINK-5495,PAYLOAD,2024-04-04 14:08:11,14.98335753,0.0002934,69.9997,159.7606,267.3237,92.7586,-2.7152e-05,-4.17e-06,0.0,0 STARLINK-5495,1 55635U 23021H   24095.58902092 -.00000417  00000-0 -27152-4 0  9992,2 55635  69.9997 159.7606 0002934 267.3237  92.7586 14.98335753 63326,6950.175,96.107,574.079,570.001,0.0
55635.0,STARLINK-5495,PAYLOAD,2024-04-04 22:08:51,14.98333339,0.0002978,69.9996,158.919,267.471,92.6108,9.9318e-06,2.6e-07,0.0,0 STARLINK-5495,1 55635U 23021H   24095.92282022  .00000026  00000-0  99318-5 0  9992,2 55635  69.9996 158.9190 0002978 267.4710  92.6108 14.98333339 63371,6950.183,96.107,574.117,569.978,0.0
55635.0,STARLINK-5495,PAYLOAD,2024-04-05 12:34:03,14.98336801,0.0003085,69.9993,157.4044,268.5171,91.5635,5.786e-05,5.98e-06,0.0,0 STARLINK-5495,1 55635U 23021H   24096.52365477  .00000598  00000-0  57860-4 0  9994,2 55635  69.9993 157.4044 0003085 268.5171  91.5635 14.98336801 63160,6950.172,96.107,574.181,569.893,0.0
